[{"OBJECT_NAME":"ONEWEB-0125","OBJECT_ID":"2020-100P","EPOCH":"2025-09-11T03:29:46.725216","MEAN_MOTION":13.1244343,"ECCENTRICITY":0.00019568,"INCLINATION":87.8897,"RA_OF_ASC_NODE":46.0882,"ARG_OF_PERICENTER":90.7119,"MEAN_ANOMALY":269.4234,"EPHEMERIS_TYPE":0,"CLASSIFICATION_TYPE":"U","NORAD_CAT_ID":47271,"ELEMENT_SET_NO":999,"REV_AT_EPOCH":22803,"BSTAR":-0.0011127312,"MEAN_MOTION_DOT":-3.88e-6,"MEAN_MOTION_DDOT":0},{"OBJECT_NAME":"ONEWEB-0126","OBJECT_ID":"2020-100Q","EPOCH":"2025-09-11T04:00:20.769984","MEAN_MOTION":13.12442688,"ECCENTRICITY":0.00016644,"INCLINATION":87.8907,"RA_OF_ASC_NODE":46.1053,"ARG_OF_PERICENTER":97.9533,"MEAN_ANOMALY":262.1784,"EPHEMERIS_TYPE":0,"CLASSIFICATION_TYPE":"U","NORAD_CAT_ID":47272,"ELEMENT_SET_NO":999,"REV_AT_EPOCH":22810,"BSTAR":0.00037842153,"MEAN_MOTION_DOT":1.49e-6,"MEAN_MOTION_DDOT":0},{"OBJECT_NAME":"ONEWEB-0127","OBJECT_ID":"2020-100R","EPOCH":"2025-09-11T03:11:05.728416","MEAN_MOTION":13.12442729,"ECCENTRICITY":0.00016125,"INCLINATION":87.8897,"RA_OF_ASC_NODE":46.1247,"ARG_OF_PERICENTER":99.5659,"MEAN_ANOMALY":260.5652,"EPHEMERIS_TYPE":0,"CLASSIFICATION_TYPE":"U","NORAD_CAT_ID":47273,"ELEMENT_SET_NO":999,"REV_AT_EPOCH":22812,"BSTAR":-0.00067702074,"MEAN_MOTION_DOT":-2.31e-6,"MEAN_MOTION_DDOT":0},{"OBJECT_NAME":"ONEWEB-0128","OBJECT_ID":"2020-100S","EPOCH":"2025-09-11T03:43:47.878464","MEAN_MOTION":13.12443887,"ECCENTRICITY":0.00014378,"INCLINATION":87.8893,"RA_OF_ASC_NODE":46.1444,"ARG_OF_PERICENTER":94.951,"MEAN_ANOMALY":265.1783,"EPHEMERIS_TYPE":0,"CLASSIFICATION_TYPE":"U","NORAD_CAT_ID":47274,"ELEMENT_SET_NO":999,"REV_AT_EPOCH":22814,"BSTAR":-0.00091369145,"MEAN_MOTION_DOT":-3.16e-6,"MEAN_MOTION_DDOT":0},{"OBJECT_NAME":"ONEWEB-0129","OBJECT_ID":"2020-100T","EPOCH":"2025-09-11T03:13:26.063616","MEAN_MOTION":13.12442972,"ECCENTRICITY":0.00019279,"INCLINATION":87.8898,"RA_OF_ASC_NODE":46.093,"ARG_OF_PERICENTER":133.1462,"MEAN_ANOMALY":226.9828,"EPHEMERIS_TYPE":0,"CLASSIFICATION_TYPE":"U","NORAD_CAT_ID":47275,"ELEMENT_SET_NO":999,"REV_AT_EPOCH":22807,"BSTAR":-0.00083688232,"MEAN_MOTION_DOT":-2.88e-6,"MEAN_MOTION_DDOT":0},{"OBJECT_NAME":"ONEWEB-0130","OBJECT_ID":"2020-100U","EPOCH":"2025-09-11T03:53:08.601504","MEAN_MOTION":13.12444535,"ECCENTRICITY":0.00015596,"INCLINATION":87.8899,"RA_OF_ASC_NODE":46.0847,"ARG_OF_PERICENTER":96.0453,"MEAN_ANOMALY":264.0854,"EPHEMERIS_TYPE":0,"CLASSIFICATION_TYPE":"U","NORAD_CAT_ID":47276,"ELEMENT_SET_NO":999,"REV_AT_EPOCH":22804,"BSTAR":-0.00033075941,"MEAN_MOTION_DOT":-1.06e-6,"MEAN_MOTION_DDOT":0},{"OBJECT_NAME":"ONEWEB-0131","OBJECT_ID":"2020-100V","EPOCH":"2025-09-11T03:48:29.214144","MEAN_MOTION":13.12443528,"ECCENTRICITY":0.00016093,"INCLINATION":87.8899,"RA_OF_ASC_NODE":46.1152,"ARG_OF_PERICENTER":94.401,"MEAN_ANOMALY":265.7302,"EPHEMERIS_TYPE":0,"CLASSIFICATION_TYPE":"U","NORAD_CAT_ID":47277,"ELEMENT_SET_NO":999,"REV_AT_EPOCH":22808,"BSTAR":-0.00062840059,"MEAN_MOTION_DOT":-2.13e-6,"MEAN_MOTION_DDOT":0},{"OBJECT_NAME":"ONEWEB-0132","OBJECT_ID":"2020-100W","EPOCH":"2025-09-11T04:30:31.947264","MEAN_MOTION":13.12442587,"ECCENTRICITY":0.00017411,"INCLINATION":87.8898,"RA_OF_ASC_NODE":46.1111,"ARG_OF_PERICENTER":87.4156,"MEAN_ANOMALY":272.7172,"EPHEMERIS_TYPE":0,"CLASSIFICATION_TYPE":"U","NORAD_CAT_ID":47278,"ELEMENT_SET_NO":999,"REV_AT_EPOCH":22798,"BSTAR":0.00093208637,"MEAN_MOTION_DOT":3.48e-6,"MEAN_MOTION_DDOT":0},{"OBJECT_NAME":"ONEWEB-0133","OBJECT_ID":"2020-100X","EPOCH":"2025-09-11T03:03:52.869600","MEAN_MOTION":13.12442503,"ECCENTRICITY":0.00015295,"INCLINATION":87.8884,"RA_OF_ASC_NODE":46.0929,"ARG_OF_PERICENTER":91.631,"MEAN_ANOMALY":268.4994,"EPHEMERIS_TYPE":0,"CLASSIFICATION_TYPE":"U","NORAD_CAT_ID":47279,"ELEMENT_SET_NO":999,"REV_AT_EPOCH":22813,"BSTAR":-0.00021557907,"MEAN_MOTION_DOT":-6.5e-7,"MEAN_MOTION_DDOT":0},{"OBJECT_NAME":"ONEWEB-0134","OBJECT_ID":"2020-100Y","EPOCH":"2025-09-11T04:09:30.319776","MEAN_MOTION":13.12444109,"ECCENTRICITY":0.00014279,"INCLINATION":87.8898,"RA_OF_ASC_NODE":46.0707,"ARG_OF_PERICENTER":98.6923,"MEAN_ANOMALY":261.4368,"EPHEMERIS_TYPE":0,"CLASSIFICATION_TYPE":"U","NORAD_CAT_ID":47280,"ELEMENT_SET_NO":999,"REV_AT_EPOCH":22811,"BSTAR":0.00078292592,"MEAN_MOTION_DOT":2.94e-6,"MEAN_MOTION_DDOT":0},{"OBJECT_NAME":"ONEWEB-0135","OBJECT_ID":"2020-100Z","EPOCH":"2025-09-11T03:27:26.982720","MEAN_MOTION":13.1244217,"ECCENTRICITY":0.00012502,"INCLINATION":87.8896,"RA_OF_ASC_NODE":46.1169,"ARG_OF_PERICENTER":95.2672,"MEAN_ANOMALY":264.8599,"EPHEMERIS_TYPE":0,"CLASSIFICATION_TYPE":"U","NORAD_CAT_ID":47281,"ELEMENT_SET_NO":999,"REV_AT_EPOCH":22813,"BSTAR":-0.0012371556,"MEAN_MOTION_DOT":-4.32e-6,"MEAN_MOTION_DDOT":0},{"OBJECT_NAME":"ONEWEB-0136","OBJECT_ID":"2020-100AA","EPOCH":"2025-09-10T22:26:08.181024","MEAN_MOTION":13.12443934,"ECCENTRICITY":0.00013044,"INCLINATION":87.89,"RA_OF_ASC_NODE":46.1271,"ARG_OF_PERICENTER":105.8271,"MEAN_ANOMALY":254.3002,"EPHEMERIS_TYPE":0,"CLASSIFICATION_TYPE":"U","NORAD_CAT_ID":47282,"ELEMENT_SET_NO":999,"REV_AT_EPOCH":22803,"BSTAR":-3.8042563e-5,"MEAN_MOTION_DOT":-1.0e-8,"MEAN_MOTION_DDOT":0},{"OBJECT_NAME":"ONEWEB-0137","OBJECT_ID":"2020-100AB","EPOCH":"2025-09-11T02:54:45.259488","MEAN_MOTION":13.12442586,"ECCENTRICITY":0.00018426,"INCLINATION":87.8897,"RA_OF_ASC_NODE":46.0959,"ARG_OF_PERICENTER":98.2239,"MEAN_ANOMALY":261.9098,"EPHEMERIS_TYPE":0,"CLASSIFICATION_TYPE":"U","NORAD_CAT_ID":47283,"ELEMENT_SET_NO":999,"REV_AT_EPOCH":22796,"BSTAR":0.000288748,"MEAN_MOTION_DOT":1.17e-6,"MEAN_MOTION_DDOT":0},{"OBJECT_NAME":"ONEWEB-0138","OBJECT_ID":"2020-100AC","EPOCH":"2025-09-11T04:14:10.954752","MEAN_MOTION":13.12443243,"ECCENTRICITY":0.00015803,"INCLINATION":87.8897,"RA_OF_ASC_NODE":46.0947,"ARG_OF_PERICENTER":97.661,"MEAN_ANOMALY":262.4698,"EPHEMERIS_TYPE":0,"CLASSIFICATION_TYPE":"U","NORAD_CAT_ID":47284,"ELEMENT_SET_NO":999,"REV_AT_EPOCH":22805,"BSTAR":0.0011321857,"MEAN_MOTION_DOT":4.2e-6,"MEAN_MOTION_DDOT":0},{"OBJECT_NAME":"ONEWEB-0139","OBJECT_ID":"2020-100AD","EPOCH":"2025-09-11T03:20:39.728544","MEAN_MOTION":13.12442624,"ECCENTRICITY":0.00016829,"INCLINATION":87.8888,"RA_OF_ASC_NODE":46.0934,"ARG_OF_PERICENTER":95.0456,"MEAN_ANOMALY":265.0865,"EPHEMERIS_TYPE":0,"CLASSIFICATION_TYPE":"U","NORAD_CAT_ID":47285,"ELEMENT_SET_NO":999,"REV_AT_EPOCH":22812,"BSTAR":-0.00095938529,"MEAN_MOTION_DOT":-3.32e-6,"MEAN_MOTION_DDOT":0},{"OBJECT_NAME":"ONEWEB-0140","OBJECT_ID":"2020-100AE","EPOCH":"2025-09-11T04:04:50.204928","MEAN_MOTION":13.12443605,"ECCENTRICITY":0.0001562,"INCLINATION":87.8898,"RA_OF_ASC_NODE":46.0715,"ARG_OF_PERICENTER":97.3588,"MEAN_ANOMALY":262.7719,"EPHEMERIS_TYPE":0,"CLASSIFICATION_TYPE":"U","NORAD_CAT_ID":47286,"ELEMENT_SET_NO":999,"REV_AT_EPOCH":22809,"BSTAR":0.00076398626,"MEAN_MOTION_DOT":2.88e-6,"MEAN_MOTION_DDOT":0}]
