ONEWEB-0125             
1 47271U 20100P   25254.14567969 -.00000388  00000+0 -11127-2 0  9993
2 47271  87.8897  46.0882 0001956  90.7119 269.4234 13.12443430228036
ONEWEB-0126             
1 47272U 20100Q   25254.16690706  .00000149  00000+0  37842-3 0  9998
2 47272  87.8907  46.1053 0001664  97.9533 262.1784 13.12442688228107
ONEWEB-0127             
1 47273U 20100R   25254.13270519 -.00000231  00000+0 -67702-3 0  9994
2 47273  87.8897  46.1247 0001612  99.5659 260.5652 13.12442729228125
ONEWEB-0128             
1 47274U 20100S   25254.15541526 -.00000316  00000+0 -91369-3 0  9996
2 47274  87.8893  46.1444 0001437  94.9510 265.1783 13.12443887228145
ONEWEB-0129             
1 47275U 20100T   25254.13432944 -.00000288  00000+0 -83688-3 0  9991
2 47275  87.8898  46.0930 0001927 133.1462 226.9828 13.12442972228077
ONEWEB-0130             
1 47276U 20100U   25254.16190511 -.00000106  00000+0 -33076-3 0  9991
2 47276  87.8899  46.0847 0001559  96.0453 264.0854 13.12444535228040
ONEWEB-0131             
1 47277U 20100V   25254.15867146 -.00000213  00000+0 -62840-3 0  9996
2 47277  87.8899  46.1152 0001609  94.4010 265.7302 13.12443528228089
ONEWEB-0132             
1 47278U 20100W   25254.18786976  .00000348  00000+0  93209-3 0  9991
2 47278  87.8898  46.1111 0001741  87.4156 272.7172 13.12442587227989
ONEWEB-0133             
1 47279U 20100X   25254.12769525 -.00000065  00000+0 -21558-3 0  9993
2 47279  87.8884  46.0929 0001529  91.6310 268.4994 13.12442503228134
ONEWEB-0134             
1 47280U 20100Y   25254.17326759  .00000294  00000+0  78293-3 0  9998
2 47280  87.8898  46.0707 0001427  98.6923 261.4368 13.12444109228119
ONEWEB-0135             
1 47281U 20100Z   25254.14406230 -.00000432  00000+0 -12372-2 0  9990
2 47281  87.8896  46.1169 0001250  95.2672 264.8599 13.12442170228130
ONEWEB-0136             
1 47282U 20100AA  25253.93481691 -.00000001  00000+0 -38043-4 0  9998
2 47282  87.8900  46.1271 0001304 105.8271 254.3002 13.12443934228035
ONEWEB-0137             
1 47283U 20100AB  25254.12135717  .00000117  00000+0  28875-3 0  9993
2 47283  87.8897  46.0959 0001842  98.2239 261.9098 13.12442586227961
ONEWEB-0138             
1 47284U 20100AC  25254.17651568  .00000420  00000+0  11322-2 0  9991
2 47284  87.8897  46.0947 0001580  97.6610 262.4698 13.12443243228058
ONEWEB-0139             
1 47285U 20100AD  25254.13934871 -.00000332  00000+0 -95939-3 0  9990
2 47285  87.8888  46.0934 0001682  95.0456 265.0865 13.12442624228123
ONEWEB-0140             
1 47286U 20100AE  25254.17002552  .00000288  00000+0  76399-3 0  9994
2 47286  87.8898  46.0715 0001562  97.3588 262.7719 13.12443605228098
